{
  "norad_id": 56324,
  "name": "STARLINK-6034",
  "history": [
    {
      "epoch": "2026-04-30T11:22:12.676512Z",
      "apogee_km": 551.5448422026893,
      "perigee_km": 547.5794272179819,
      "latitude_deg": -1.6051100797327546e-05,
      "longitude_deg": 93.32589042248263,
      "height_km": 552.2949294578493,
      "semi_major_axis_km": 6927.699134710336,
      "eccentricity": 0.0002862,
      "inclination_deg": 97.5517,
      "raan_deg": 122.2987,
      "arg_perigee_deg": 80.4478,
      "mean_anomaly_deg": 279.7072,
      "mean_motion_rev_day": 15.0563338
    },
    {
      "epoch": "2026-05-02T06:26:05.301888Z",
      "apogee_km": 550.9562831701987,
      "perigee_km": 547.9413978124157,
      "latitude_deg": -2.3628311915403867e-05,
      "longitude_deg": 167.3442158082189,
      "height_km": 552.0527721230411,
      "semi_major_axis_km": 6927.585840491307,
      "eccentricity": 0.0002176,
      "inclination_deg": 97.547,
      "raan_deg": 124.0549,
      "arg_perigee_deg": 72.2562,
      "mean_anomaly_deg": 287.8902,
      "mean_motion_rev_day": 15.05670315
    },
    {
      "epoch": "2026-05-03T14:20:05.520768Z",
      "apogee_km": 550.3686719364487,
      "perigee_km": 548.5785773510406,
      "latitude_deg": -4.1050952446670146e-05,
      "longitude_deg": 48.83191372328699,
      "height_km": 552.1936752027693,
      "semi_major_axis_km": 6927.610624643745,
      "eccentricity": 0.0001292,
      "inclination_deg": 97.5379,
      "raan_deg": 125.3536,
      "arg_perigee_deg": 67.3229,
      "mean_anomaly_deg": 292.8134,
      "mean_motion_rev_day": 15.05662235
    },
    {
      "epoch": "2026-05-04T12:39:53.742240Z",
      "apogee_km": 550.889457060619,
      "perigee_km": 548.157187829448,
      "latitude_deg": -7.303107354448503e-06,
      "longitude_deg": 73.87392034516913,
      "height_km": 552.256941477032,
      "semi_major_axis_km": 6927.660322445034,
      "eccentricity": 0.0001972,
      "inclination_deg": 97.5352,
      "raan_deg": 126.2636,
      "arg_perigee_deg": 76.007,
      "mean_anomaly_deg": 284.1376,
      "mean_motion_rev_day": 15.05646033
    }
  ]
}